IRIDIUM 63              
1 25286U 98021B   26024.87688700  .00000761  00000+0  25139-3 0  9997
2 25286  86.4010 349.1122 0001964  85.1598 274.9824 14.36780943455670
IRIDIUM 69              
1 25319U 98026A   26025.17743373  .00001003  00000+0  30449-3 0  9991
2 25319  86.3992   1.5706 0003639  46.8796 313.2708 14.41264889455037
IRIDIUM 71              
1 25320U 98026B   26024.88364674  .00000937  00000+0  28339-3 0  9993
2 25320  86.3996 356.3657 0004292  81.8565 278.3122 14.41357006455527
IRIDIUM 73              
1 25344U 98032C   26025.12552890  .00001221  00000+0  29712-3 0  9996
2 25344  86.4439 312.5566 0002012  67.6376 292.5043 14.52065063462764
IRIDIUM 82              
1 25467U 98051A   26024.35932070  .00075064  00000+0  11977-2 0  9998
2 25467  86.3609 359.5780 0057608 162.5552 197.7706 15.51012841457996
